GLOBALSTAR M063         
1 26081U 00008A   25089.79426075 -.00000051  00000+0  46129-3 0  9990
2 26081  51.9968 318.0342 0004822 156.6117 282.8245 11.86167672148279
GLOBALSTAR M062         
1 26082U 00008B   25089.83457521 -.00000072  00000+0  19023-3 0  9992
2 26082  51.9865 326.1958 0006469 309.7342 130.2674 12.43461922486871
GLOBALSTAR M060         
1 26083U 00008C   25089.84500127 -.00000039  00000+0  52016-3 0  9997
2 26083  52.0011 275.0889 0002685 338.5371 127.7550 12.17657739142822
GLOBALSTAR M064         
1 26084U 00008D   25089.59451621 -.00000085  00000+0 -22977-4 0  9990
2 26084  52.0037  58.3074 0001279 272.2085  87.8601 11.88532076157757
GLOBALSTAR M065         
1 31571U 07020A   25089.44122808 -.00000016  00000+0  49379-3 0  9991
2 31571  51.9873 105.9448 0010508 132.3895  19.2450 12.62003505823466
GLOBALSTAR M069         
1 31573U 07020C   25089.69654346 -.00000097  00000+0  81903-5 0  9997
2 31573  51.9945  72.9593 0000569  18.5270 152.0657 12.42143452824415
GLOBALSTAR M072         
1 31574U 07020D   25089.77479623 -.00000072  00000+0  16240-3 0  9993
2 31574  52.0140 200.7170 0001757 173.4551 354.2402 11.91777079822110
GLOBALSTAR M071         
1 31576U 07020F   25089.71683628 -.00000141  00000+0 -48771-3 0  9993
2 31576  52.0047  90.7099 0000659 311.0168 219.7828 12.18251528485375
